API VERSION: 1.2
API SOURCE: NASA/JPL Horizons API



*******************************************************************************
Ephemeris / API_USER Mon Oct 30 14:06:00 2023 Pasadena, USA      / Horizons    
*******************************************************************************
Target body name: Moon (301)                      {source: DE441}
Center body name: Earth (399)                     {source: DE441}
Center-site name: GEOCENTRIC
*******************************************************************************
Start time      : A.D. 2058-Jan-01 00:00:00.0000 UT      
Stop  time      : A.D. 2059-Jan-01 00:00:00.0000 UT      
Step-size       : 60 minutes
*******************************************************************************
Target pole/equ : MOON_ME                         {East-longitude positive}
Target radii    : 1737.4, 1737.4, 1737.4 km       {Equator_a, b, pole_c}       
Center geodetic : 0.0, 0.0, -6378.137             {E-lon(deg),Lat(deg),Alt(km)}
Center cylindric: 0.0, 0.0, 0.0                   {E-lon(deg),Dxy(km),Dz(km)}
Center pole/equ : ITRF93                          {East-longitude positive}
Center radii    : 6378.137, 6378.137, 6356.752 km {Equator_a, b, pole_c}       
Target primary  : Earth
Vis. interferer : MOON (R_eq= 1737.400) km        {source: DE441}
Rel. light bend : Sun                             {source: DE441}
Rel. lght bnd GM: 1.3271E+11 km^3/s^2                                          
Atmos refraction: NO (AIRLESS)
RA format       : HMS
Time format     : CAL 
Calendar mode   : Mixed Julian/Gregorian
EOP file        : eop.231027.p240119                                           
EOP coverage    : DATA-BASED 1962-JAN-20 TO 2023-OCT-27. PREDICTS-> 2024-JAN-18
Units conversion: 1 au= 149597870.700 km, c= 299792.458 km/s, 1 day= 86400.0 s 
Table cut-offs 1: Elevation (-90.0deg=NO ),Airmass (>38.000=NO), Daylight (NO )
Table cut-offs 2: Solar elongation (  0.0,180.0=NO ),Local Hour Angle( 0.0=NO )
Table cut-offs 3: RA/DEC angular rate (     0.0=NO )                           
Table format    : Comma Separated Values (spreadsheet)
***********************************************************************************************************************************************
 Date__(UT)__HR:MN, , , R.A._(ICRF), DEC__(ICRF),      Illu%,  ObsSub-LON, ObsSub-LAT,  SunSub-LON, SunSub-LAT,    NP.ang,  NP.dist,     S-T-O,
***********************************************************************************************************************************************
$$SOE
 2058-Mar-16 09:00, , , 16 28 02.10, -20 55 13.3,   64.40420,  355.720492,  -1.100214,  282.442525,  -1.520864,    7.1162, -956.168,   73.2583,
 2058-Mar-16 10:00, , , 16 30 25.76, -21 03 27.6,   63.95963,  355.743396,  -1.034966,  281.935391,  -1.520391,    6.8896, -956.484,   73.7895,
 2058-Mar-16 11:00, , , 16 32 49.77, -21 11 34.6,   63.51355,  355.766605,  -0.969576,  281.428244,  -1.519919,    6.6619, -956.797,   74.3210,
 2058-Mar-16 12:00, , , 16 35 14.12, -21 19 34.2,   63.06602,  355.790121,  -0.904052,  280.921086,  -1.519447,    6.4330, -957.108,   74.8530,
 2058-Mar-16 13:00, , , 16 37 38.81, -21 27 26.4,   62.61706,  355.813944,  -0.838399,  280.413914,  -1.518977,    6.2030, -957.417,   75.3852,
 2058-Mar-16 14:00, , , 16 40 03.85, -21 35 11.1,   62.16671,  355.838077,  -0.772624,  279.906731,  -1.518508,    5.9719, -957.724,   75.9179,
 2058-Mar-16 15:00, , , 16 42 29.22, -21 42 48.2,   61.71502,  355.862519,  -0.706734,  279.399535,  -1.518040,    5.7397, -958.029,   76.4509,
 2058-Mar-16 16:00, , , 16 44 54.93, -21 50 17.7,   61.26201,  355.887273,  -0.640736,  278.892326,  -1.517573,    5.5064, -958.331,   76.9842,
 2058-Mar-16 17:00, , , 16 47 20.98, -21 57 39.3,   60.80772,  355.912339,  -0.574635,  278.385105,  -1.517107,    5.2721, -958.632,   77.5179,
 2058-Mar-16 18:00, , , 16 49 47.36, -22 04 53.2,   60.35220,  355.937719,  -0.508440,  277.877871,  -1.516643,    5.0368, -958.930,   78.0519,
 2058-Mar-16 19:00, , , 16 52 14.07, -22 11 59.1,   59.89549,  355.963414,  -0.442155,  277.370624,  -1.516179,    4.8004, -959.226,   78.5863,
 2058-Mar-16 20:00, , , 16 54 41.11, -22 18 57.0,   59.43761,  355.989424,  -0.375789,  276.863365,  -1.515717,    4.5631, -959.519,   79.1210,
 2058-Mar-16 21:00, , , 16 57 08.47, -22 25 46.9,   58.97861,  356.015752,  -0.309347,  276.356093,  -1.515257,    4.3248, -959.810,   79.6561,
 2058-Mar-16 22:00, , , 16 59 36.16, -22 32 28.6,   58.51854,  356.042398,  -0.242837,  275.848808,  -1.514797,    4.0856, -960.099,   80.1915,
 2058-Mar-16 23:00, , , 17 02 04.17, -22 39 02.1,   58.05742,  356.069363,  -0.176265,  275.341511,  -1.514339,    3.8455, -960.386,   80.7273,
 2058-Mar-17 00:00, , , 17 04 32.49, -22 45 27.3,   57.59529,  356.096649,  -0.109639,  274.834200,  -1.513883,    3.6046, -960.670,   81.2634,
 2058-Mar-17 01:00, , , 17 07 01.13, -22 51 44.2,   57.13221,  356.124256,  -0.042964,  274.326877,  -1.513428,    3.3627, -960.952,   81.7998,
 2058-Mar-17 02:00, , , 17 09 30.08, -22 57 52.6,   56.66820,  356.152186,   0.023751,  273.819541,  -1.512974,    3.1201,  961.231,   82.3366,
 2058-Mar-17 03:00, , , 17 11 59.33, -23 03 52.6,   56.20331,  356.180439,   0.090501,  273.312192,  -1.512522,    2.8767,  961.507,   82.8738,
 2058-Mar-17 04:00, , , 17 14 28.89, -23 09 43.9,   55.73758,  356.209017,   0.157278,  272.804830,  -1.512071,    2.6325,  961.782,   83.4112,
 2058-Mar-17 05:00, , , 17 16 58.74, -23 15 26.6,   55.27105,  356.237921,   0.224075,  272.297455,  -1.511622,    2.3875,  962.053,   83.9491,
 2058-Mar-17 06:00, , , 17 19 28.89, -23 21 00.6,   54.80376,  356.267152,   0.290885,  271.790067,  -1.511174,    2.1419,  962.322,   84.4872,
 2058-Mar-17 07:00, , , 17 21 59.33, -23 26 25.9,   54.33575,  356.296710,   0.357702,  271.282666,  -1.510728,    1.8956,  962.589,   85.0257,
 2058-Mar-17 08:00, , , 17 24 30.06, -23 31 42.2,   53.86707,  356.326597,   0.424518,  270.775252,  -1.510284,    1.6486,  962.853,   85.5646,
 2058-Mar-17 09:00, , , 17 27 01.07, -23 36 49.7,   53.39774,  356.356813,   0.491326,  270.267825,  -1.509841,    1.4010,  963.114,   86.1038,
 2058-Mar-17 10:00, , , 17 29 32.36, -23 41 48.2,   52.92783,  356.387360,   0.558119,  269.760385,  -1.509400,    1.1529,  963.372,   86.6433,
 2058-Mar-17 11:00, , , 17 32 03.91, -23 46 37.6,   52.45736,  356.418238,   0.624890,  269.252931,  -1.508961,    0.9041,  963.628,   87.1831,
 2058-Mar-17 12:00, , , 17 34 35.74, -23 51 17.9,   51.98639,  356.449448,   0.691632,  268.745465,  -1.508524,    0.6549,  963.881,   87.7233,
 2058-Mar-17 13:00, , , 17 37 07.83, -23 55 49.1,   51.51495,  356.480991,   0.758338,  268.237985,  -1.508088,    0.4052,  964.132,   88.2638,
 2058-Mar-17 14:00, , , 17 39 40.17, -24 00 11.0,   51.04308,  356.512868,   0.825000,  267.730493,  -1.507654,    0.1550,  964.379,   88.8046,
 2058-Mar-17 15:00, , , 17 42 12.77, -24 04 23.7,   50.57083,  356.545078,   0.891612,  267.222987,  -1.507222,  359.9044,  964.624,   89.3458,
 2058-Mar-17 16:00, , , 17 44 45.61, -24 08 27.0,   50.09825,  356.577624,   0.958166,  266.715468,  -1.506791,  359.6534,  964.866,   89.8873,
 2058-Mar-17 17:00, , , 17 47 18.70, -24 12 20.9,   49.62537,  356.610505,   1.024654,  266.207936,  -1.506363,  359.4020,  965.105,   90.4292,
 2058-Mar-17 18:00, , , 17 49 52.02, -24 16 05.4,   49.15224,  356.643723,   1.091071,  265.700390,  -1.505936,  359.1504,  965.341,   90.9713,
 2058-Mar-17 19:00, , , 17 52 25.57, -24 19 40.3,   48.67890,  356.677277,   1.157408,  265.192832,  -1.505511,  358.8984,  965.574,   91.5138,
 2058-Mar-17 20:00, , , 17 54 59.34, -24 23 05.7,   48.20540,  356.711169,   1.223659,  264.685260,  -1.505088,  358.6462,  965.804,   92.0566,
 2058-Mar-17 21:00, , , 17 57 33.33, -24 26 21.5,   47.73178,  356.745398,   1.289815,  264.177675,  -1.504668,  358.3938,  966.032,   92.5997,
 2058-Mar-17 22:00, , , 18 00 07.53, -24 29 27.7,   47.25808,  356.779965,   1.355871,  263.670077,  -1.504249,  358.1413,  966.256,   93.1432,
 2058-Mar-17 23:00, , , 18 02 41.93, -24 32 24.1,   46.78435,  356.814871,   1.421817,  263.162465,  -1.503832,  357.8885,  966.477,   93.6869,
 2058-Mar-18 00:00, , , 18 05 16.53, -24 35 10.8,   46.31064,  356.850115,   1.487648,  262.654840,  -1.503417,  357.6357,  966.696,   94.2310,
 2058-Mar-18 01:00, , , 18 07 51.33, -24 37 47.7,   45.83698,  356.885698,   1.553355,  262.147203,  -1.503004,  357.3829,  966.911,   94.7754,
 2058-Mar-18 02:00, , , 18 10 26.30, -24 40 14.7,   45.36343,  356.921621,   1.618932,  261.639551,  -1.502593,  357.1300,  967.123,   95.3201,
 2058-Mar-18 03:00, , , 18 13 01.46, -24 42 31.9,   44.89003,  356.957882,   1.684371,  261.131887,  -1.502184,  356.8771,  967.332,   95.8652,
 2058-Mar-18 04:00, , , 18 15 36.79, -24 44 39.2,   44.41681,  356.994483,   1.749665,  260.624209,  -1.501777,  356.6243,  967.538,   96.4105,
 2058-Mar-18 05:00, , , 18 18 12.28, -24 46 36.5,   43.94384,  357.031424,   1.814806,  260.116518,  -1.501372,  356.3716,  967.740,   96.9561,
 2058-Mar-18 06:00, , , 18 20 47.93, -24 48 23.8,   43.47115,  357.068704,   1.879787,  259.608814,  -1.500970,  356.1190,  967.940,   97.5021,
 2058-Mar-18 07:00, , , 18 23 23.72, -24 50 01.0,   42.99880,  357.106323,   1.944601,  259.101096,  -1.500569,  355.8666,  968.136,   98.0483,
 2058-Mar-18 08:00, , , 18 25 59.66, -24 51 28.3,   42.52681,  357.144281,   2.009240,  258.593366,  -1.500171,  355.6144,  968.329,   98.5949,
 2058-Mar-18 09:00, , , 18 28 35.74, -24 52 45.4,   42.05525,  357.182577,   2.073697,  258.085622,  -1.499774,  355.3625,  968.519,   99.1418,
 2058-Mar-18 10:00, , , 18 31 11.94, -24 53 52.4,   41.58416,  357.221213,   2.137964,  257.577865,  -1.499380,  355.1108,  968.705,   99.6889,
 2058-Mar-18 11:00, , , 18 33 48.27, -24 54 49.3,   41.11357,  357.260186,   2.202035,  257.070094,  -1.498988,  354.8595,  968.888,  100.2364,
